start=new Date('2023-06-04T00:00:00.000Z').valueOf();
sats=[{"SEMIMAJOR_AXIS":"6925.326","OBJECT_NAME":"STARLINK-2133","RA_OF_ASC_NODE":"246.2350","COUNTRY_CODE":"US","ELEMENT_SET_NO":"999","ECCENTRICITY":"0.00009680","INCLINATION":"53.0544","TLE_LINE2":"2 47406  53.0544 246.2350 0000968 100.6254 259.4844 15.06407275131218","TLE_LINE1":"1 47406U 21005BK  23154.56730690  .00018263  00000-0  12415-2 0  9995","EPOCH":"2023-06-03T13:36:55.316160","PERIAPSIS":"546.521","SITE":"AFETR","REV_AT_EPOCH":"13121","MEAN_MOTION_DOT":"0.00018263","MEAN_MOTION_DDOT":"0.0000000000000","CENTER_NAME":"EARTH","LAUNCH_DATE":"2021-01-20","TIME_SYSTEM":"UTC","ARG_OF_PERICENTER":"100.6254","CLASSIFICATION_TYPE":"U","MEAN_ELEMENT_THEORY":"SGP4","RCS_SIZE":"LARGE","OBJECT_TYPE":"PAYLOAD","FILE":"3924076","GP_ID":"233106934","PERIOD":"95.592","REF_FRAME":"TEME","MEAN_MOTION":"15.06407275","DECAY_DATE":null,"BSTAR":"0.00124150000000","OBJECT_ID":"2021-005BK","EPHEMERIS_TYPE":"0","NORAD_CAT_ID":"47406","MEAN_ANOMALY":"259.4844","APOAPSIS":"547.862"},{"MEAN_ANOMALY":"259.3133","NORAD_CAT_ID":"47407","EPHEMERIS_TYPE":"0","OBJECT_ID":"2021-005BL","BSTAR":"0.00128160000000","APOAPSIS":"547.844","FILE":"3924324","OBJECT_TYPE":"PAYLOAD","DECAY_DATE":null,"MEAN_MOTION":"15.06410154","REF_FRAME":"TEME","PERIOD":"95.591","GP_ID":"233140993","MEAN_ELEMENT_THEORY":"SGP4","RCS_SIZE":"LARGE","ARG_OF_PERICENTER":"100.7964","CLASSIFICATION_TYPE":"U","MEAN_MOTION_DOT":"0.00018865","REV_AT_EPOCH":"13122","SITE":"AFETR","TIME_SYSTEM":"UTC","LAUNCH_DATE":"2021-01-20","CENTER_NAME":"EARTH","MEAN_MOTION_DDOT":"0.0000000000000","INCLINATION":"53.0533","ECCENTRICITY":"0.00009560","ELEMENT_SET_NO":"999","COUNTRY_CODE":"US","EPOCH":"2023-06-03T15:23:04.637760","PERIAPSIS":"546.520","TLE_LINE2":"2 47407  53.0533 245.9018 0000956 100.7964 259.3133 15.06410154131221","TLE_LINE1":"1 47407U 21005BL  23154.64102590  .00018865  00000-0  12816-2 0  9990","RA_OF_ASC_NODE":"245.9018","OBJECT_NAME":"STARLINK-2134","SEMIMAJOR_AXIS":"6925.317"},{"RCS_SIZE":"LARGE","MEAN_ELEMENT_THEORY":"SGP4","CLASSIFICATION_TYPE":"U","ARG_OF_PERICENTER":"115.9183","APOAPSIS":"548.369","NORAD_CAT_ID":"47408","MEAN_ANOMALY":"244.1973","BSTAR":"0.00024133000000","OBJECT_ID":"2021-005BM","EPHEMERIS_TYPE":"0","REF_FRAME":"TEME","PERIOD":"95.593","MEAN_MOTION":"15.06389652","DECAY_DATE":null,"GP_ID":"233107935","FILE":"3924076","OBJECT_TYPE":"PAYLOAD","OBJECT_NAME":"STARLINK-2135","RA_OF_ASC_NODE":"246.6277","SEMIMAJOR_AXIS":"6925.380","TIME_SYSTEM":"UTC","LAUNCH_DATE":"2021-01-20","MEAN_MOTION_DDOT":"0.0000000000000","CENTER_NAME":"EARTH","MEAN_MOTION_DOT":"0.00003314","REV_AT_EPOCH":"13120","SITE":"AFETR","TLE_LINE1":"1 47408U 21005BM  23154.47885355  .00003314  00000-0  24133-3 0  9998","TLE_LINE2":"2 47408  53.0543 246.6277 0001622 115.9183 244.1973 15.06389652131200","EPOCH":"2023-06-03T11:29:32.946720","PERIAPSIS":"546.122","ECCENTRICITY":"0.00016220","INCLINATION":"53.0543","COUNTRY_CODE":"US","ELEMENT_SET_NO":"999"},{"RA_OF_ASC_NODE":"224.8210","OBJECT_NAME":"STARLINK-1782","SEMIMAJOR_AXIS":"6925.354","EPOCH":"2023-06-03T21:10:45.197184","PERIAPSIS":"546.592","TLE_LINE2":"2 47548  53.0534 224.8210 0000906 107.1149 252.9940 15.06398123128737","TLE_LINE1":"1 47548U 21009A   23154.88246756  .00013391  00000-0  91618-3 0  9996","INCLINATION":"53.0534","ECCENTRICITY":"0.00009060","ELEMENT_SET_NO":"999","COUNTRY_CODE":"US","TIME_SYSTEM":"UTC","LAUNCH_DATE":"2021-02-04","CENTER_NAME":"EARTH","MEAN_MOTION_DDOT":"0.0000000000000","MEAN_MOTION_DOT":"0.00013391","REV_AT_EPOCH":"12873","SITE":"AFETR","CLASSIFICATION_TYPE":"U","ARG_OF_PERICENTER":"107.1149","RCS_SIZE":"LARGE","MEAN_ELEMENT_THEORY":"SGP4","DECAY_DATE":null,"MEAN_MOTION":"15.06398123","REF_FRAME":"TEME","PERIOD":"95.592","GP_ID":"233139504","OBJECT_TYPE":"PAYLOAD","FILE":"3924324","APOAPSIS":"547.847","MEAN_ANOMALY":"252.9940","NORAD_CAT_ID":"47548","EPHEMERIS_TYPE":"0","BSTAR":"0.00091618000000","OBJECT_ID":"2021-009A"},{"RA_OF_ASC_NODE":"226.0239","OBJECT_NAME":"STARLINK-1806","SEMIMAJOR_AXIS":"6925.315","PERIAPSIS":"546.393","EPOCH":"2023-06-03T14:43:16.145184","TLE_LINE1":"1 47549U 21009B   23154.61338131  .00007389  00000-0  51426-3 0  9990","TLE_LINE2":"2 47549  53.0544 226.0239 0001137  88.5036 271.6083 15.06410880128694","INCLINATION":"53.0544","ECCENTRICITY":"0.00011370","ELEMENT_SET_NO":"999","COUNTRY_CODE":"US","LAUNCH_DATE":"2021-02-04","TIME_SYSTEM":"UTC","MEAN_MOTION_DDOT":"0.0000000000000","CENTER_NAME":"EARTH","MEAN_MOTION_DOT":"0.00007389","REV_AT_EPOCH":"12869","SITE":"AFETR","CLASSIFICATION_TYPE":"U","ARG_OF_PERICENTER":"88.5036","RCS_SIZE":"LARGE","MEAN_ELEMENT_THEORY":"SGP4","DECAY_DATE":null,"MEAN_MOTION":"15.06410880","PERIOD":"95.591","REF_FRAME":"TEME","GP_ID":"233140255","FILE":"3924324","OBJECT_TYPE":"PAYLOAD","APOAPSIS":"547.968","MEAN_ANOMALY":"271.6083","NORAD_CAT_ID":"47549","EPHEMERIS_TYPE":"0","OBJECT_ID":"2021-009B","BSTAR":"0.00051426000000"},{"MEAN_ELEMENT_THEORY":"SGP4","RCS_SIZE":"LARGE","ARG_OF_PERICENTER":"85.7940","CLASSIFICATION_TYPE":"U","BSTAR":"0.00057021000000","OBJECT_ID":"2021-009C","EPHEMERIS_TYPE":"0","NORAD_CAT_ID":"47550","MEAN_ANOMALY":"274.3179","APOAPSIS":"548.020","OBJECT_TYPE":"PAYLOAD","FILE":"3924324","GP_ID":"233140506","REF_FRAME":"TEME","PERIOD":"95.592","DECAY_DATE":null,"MEAN_MOTION":"15.06395297","SEMIMAJOR_AXIS":"6925.363","OBJECT_NAME":"STARLINK-1909","RA_OF_ASC_NODE":"214.7865","REV_AT_EPOCH":"12887","SITE":"AFETR","MEAN_MOTION_DOT":"0.00008221","MEAN_MOTION_DDOT":"0.0000000000000","CENTER_NAME":"EARTH","LAUNCH_DATE":"2021-02-04","TIME_SYSTEM":"UTC","COUNTRY_CODE":"US","ELEMENT_SET_NO":"999","ECCENTRICITY":"0.00011440","INCLINATION":"53.0522","TLE_LINE2":"2 47550  53.0522 214.7865 0001144  85.7940 274.3179 15.06395297128872","TLE_LINE1":"1 47550U 21009C   23154.89075119  .00008221  00000-0  57021-3 0  9999","PERIAPSIS":"546.436","EPOCH":"2023-06-03T21:22:40.902816"},{"PERIAPSIS":"546.510","EPOCH":"2023-06-03T14:52:34.659840","TLE_LINE1":"1 47551U 21009D   23154.61984560  .00047971  00000-0  32173-2 0  9994","TLE_LINE2":"2 47551  53.0529 236.0007 0001004  75.6660 284.4440 15.06402757128555","INCLINATION":"53.0529","ECCENTRICITY":"0.00010040","ELEMENT_SET_NO":"999","COUNTRY_CODE":"US","TIME_SYSTEM":"UTC","LAUNCH_DATE":"2021-02-04","CENTER_NAME":"EARTH","MEAN_MOTION_DDOT":"0.0000000000000","MEAN_MOTION_DOT":"0.00047971","SITE":"AFETR","REV_AT_EPOCH":"12855","RA_OF_ASC_NODE":"236.0007","OBJECT_NAME":"STARLINK-1938","SEMIMAJOR_AXIS":"6925.340","MEAN_MOTION":"15.06402757","DECAY_DATE":null,"REF_FRAME":"TEME","PERIOD":"95.592","GP_ID":"233141257","FILE":"3924324","OBJECT_TYPE":"PAYLOAD","APOAPSIS":"547.900","MEAN_ANOMALY":"284.4440","NORAD_CAT_ID":"47551","EPHEMERIS_TYPE":"0","OBJECT_ID":"2021-009D","BSTAR":"0.00321730000000","CLASSIFICATION_TYPE":"U","ARG_OF_PERICENTER":"75.6660","RCS_SIZE":"LARGE","MEAN_ELEMENT_THEORY":"SGP4"},{"CLASSIFICATION_TYPE":"U","ARG_OF_PERICENTER":"75.4889","RCS_SIZE":"LARGE","MEAN_ELEMENT_THEORY":"SGP4","PERIOD":"95.592","REF_FRAME":"TEME","DECAY_DATE":null,"MEAN_MOTION":"15.06402562","GP_ID":"233140005","FILE":"3924324","OBJECT_TYPE":"PAYLOAD","APOAPSIS":"547.902","NORAD_CAT_ID":"47552","MEAN_ANOMALY":"284.6211","BSTAR":"0.00059586000000","OBJECT_ID":"2021-009E","EPHEMERIS_TYPE":"0","OBJECT_NAME":"STARLINK-1940","RA_OF_ASC_NODE":"224.7868","SEMIMAJOR_AXIS":"6925.341","TLE_LINE2":"2 47552  53.0535 224.7868 0001006  75.4889 284.6211 15.06402562128737","TLE_LINE1":"1 47552U 21009E   23154.88982803  .00008606  00000-0  59586-3 0  9992","EPOCH":"2023-06-03T21:21:21.141792","PERIAPSIS":"546.509","ECCENTRICITY":"0.00010060","INCLINATION":"53.0535","COUNTRY_CODE":"US","ELEMENT_SET_NO":"999","LAUNCH_DATE":"2021-02-04","TIME_SYSTEM":"UTC","MEAN_MOTION_DDOT":"0.0000000000000","CENTER_NAME":"EARTH","MEAN_MOTION_DOT":"0.00008606","REV_AT_EPOCH":"12873","SITE":"AFETR"},{"ARG_OF_PERICENTER":"107.6769","CLASSIFICATION_TYPE":"U","MEAN_ELEMENT_THEORY":"SGP4","RCS_SIZE":"LARGE","FILE":"3924324","OBJECT_TYPE":"PAYLOAD","REF_FRAME":"TEME","PERIOD":"95.592","DECAY_DATE":null,"MEAN_MOTION":"15.06395435","GP_ID":"233139755","NORAD_CAT_ID":"47554","MEAN_ANOMALY":"252.4328","OBJECT_ID":"2021-009G","BSTAR":"0.00125080000000","EPHEMERIS_TYPE":"0","APOAPSIS":"547.910","OBJECT_NAME":"STARLINK-1953","RA_OF_ASC_NODE":"245.9558","SEMIMAJOR_AXIS":"6925.363","ECCENTRICITY":"0.00009860","INCLINATION":"53.0535","COUNTRY_CODE":"US","ELEMENT_SET_NO":"999","TLE_LINE2":"2 47554  53.0535 245.9558 0000986 107.6769 252.4328 15.06395435128418","TLE_LINE1":"1 47554U 21009G   23154.62997993  .00018396  00000-0  12508-2 0  9991","PERIAPSIS":"546.545","EPOCH":"2023-06-03T15:07:10.265952","MEAN_MOTION_DOT":"0.00018396","REV_AT_EPOCH":"12841","SITE":"AFETR","TIME_SYSTEM":"UTC","LAUNCH_DATE":"2021-02-04","MEAN_MOTION_DDOT":"0.0000000000000","CENTER_NAME":"EARTH"},{"OBJECT_NAME":"STARLINK-1954","RA_OF_ASC_NODE":"236.3650","SEMIMAJOR_AXIS":"6925.328","MEAN_MOTION_DOT":"0.00016584","REV_AT_EPOCH":"12915","SITE":"AFETR","LAUNCH_DATE":"2021-02-04","TIME_SYSTEM":"UTC","MEAN_MOTION_DDOT":"0.0000000000000","CENTER_NAME":"EARTH","ECCENTRICITY":"0.00009170","INCLINATION":"53.0531","COUNTRY_CODE":"US","ELEMENT_SET_NO":"999","TLE_LINE1":"1 47555U 21009H   23154.53874078  .00016584  00000-0  11294-2 0  9998","TLE_LINE2":"2 47555  53.0531 236.3650 0000917  97.3727 262.7366 15.06406852129159","EPOCH":"2023-06-03T12:55:47.203392","PERIAPSIS":"546.558","MEAN_ELEMENT_THEORY":"SGP4","RCS_SIZE":"LARGE","ARG_OF_PERICENTER":"97.3727","CLASSIFICATION_TYPE":"U","NORAD_CAT_ID":"47555","MEAN_ANOMALY":"262.7366","OBJECT_ID":"2021-009H","BSTAR":"0.00112940000000","EPHEMERIS_TYPE":"0","APOAPSIS":"547.828","OBJECT_TYPE":"PAYLOAD","FILE":"3923989","PERIOD":"95.592","REF_FRAME":"TEME","DECAY_DATE":null,"MEAN_MOTION":"15.06406852","GP_ID":"233085558"}];
